STARLINK-36517          
1 67454U 26008K   26035.16668981 -.02056201  00000+0 -27546-1 0  9995
2 67454  42.9995  37.1167 0001086 272.8131 166.8280 15.60709956  4429
STARLINK-36516          
1 67455U 26008L   26035.16668981 -.02083391  00000+0 -25268-1 0  9995
2 67455  42.9999  37.0370 0000858 256.5033 215.6517 15.63286085  4405
STARLINK-36493          
1 67456U 26008M   26035.16668981 -.02090285  00000+0 -24507-1 0  9991
2 67456  42.9997  37.0268 0000802 260.4610 215.6569 15.64147444  4407
STARLINK-36529          
1 67457U 26008N   26035.16668981 -.02099639  00000+0 -19854-1 0  9993
2 67457  43.0000  36.9353 0000840 258.9740 253.8625 15.69404204  4408
STARLINK-36528          
1 67458U 26008P   26035.01002163  .00265234  00000+0  16690-2 0  9990
2 67458  42.9999  37.8423 0001298 273.4824  86.5896 15.75135580  4399
STARLINK-36546          
1 67459U 26008Q   26035.16668981 -.02097620  00000+0 -19786-1 0  9997
2 67459  43.0001  36.9201 0000878 262.5333 256.2948 15.69459120  4405
STARLINK-36523          
1 67460U 26008R   26035.16668981 -.02101207  00000+0 -19305-1 0  9993
2 67460  43.0002  36.9088 0000788 256.3319 267.0850 15.70091309  4423
STARLINK-36522          
1 67461U 26008S   26035.16668981 -.02093458  00000+0 -25017-1 0  9999
2 67461  42.9995  37.0080 0000789 257.4888 225.8793 15.63676246  4408
STARLINK-36504          
1 67462U 26008T   26035.00868679  .00209146  00000+0  13425-2 0  9999
2 67462  43.0000  37.8305 0002676 190.7377 169.3435 15.74843030  4397
STARLINK-36505          
1 67463U 26008U   26035.16668981 -.02089340  00000+0 -17901-1 0  9999
2 67463  43.0001  36.8811 0001041 262.4034 272.1833 15.71710970  4402
STARLINK-36421          
1 67464U 26008V   26035.16668981 -.02085509  00000+0 -25036-1 0  9991
2 67464  42.9997  36.9970 0000866 260.7329 227.2638 15.63547212  4406
STARLINK-36437          
1 67465U 26008W   26035.16668981 -.02106475  00000+0 -17764-1 0  9997
2 67465  43.0002  36.8682 0001054 258.7488 280.6520 15.72107491  4402
