CCSDS_OMM_VERS = 2.0
CREATION_DATE  = 
ORIGINATOR     = 

OBJECT_NAME    = STARLINK-36517
OBJECT_ID      = 2026-008K
CENTER_NAME    = EARTH
REF_FRAME      = TEME
TIME_SYSTEM    = UTC
MEAN_ELEMENT_THEORY = SGP/SGP4

EPOCH          = 2026-02-04T04:00:01.999584
MEAN_MOTION    = 15.60709956
ECCENTRICITY   = .0001086
INCLINATION    = 42.9995
RA_OF_ASC_NODE = 37.1167
ARG_OF_PERICENTER = 272.8131
MEAN_ANOMALY   = 166.8280

EPHEMERIS_TYPE = 0
CLASSIFICATION_TYPE = U
NORAD_CAT_ID   = 67454
ELEMENT_SET_NO = 999
REV_AT_EPOCH   = 442
BSTAR          = -.27546E-1
MEAN_MOTION_DOT = -.2056201E-1
MEAN_MOTION_DDOT = 0

CCSDS_OMM_VERS = 2.0
CREATION_DATE  = 
ORIGINATOR     = 

OBJECT_NAME    = STARLINK-36516
OBJECT_ID      = 2026-008L
CENTER_NAME    = EARTH
REF_FRAME      = TEME
TIME_SYSTEM    = UTC
MEAN_ELEMENT_THEORY = SGP/SGP4

EPOCH          = 2026-02-04T04:00:01.999584
MEAN_MOTION    = 15.63286085
ECCENTRICITY   = .0000858
INCLINATION    = 42.9999
RA_OF_ASC_NODE = 37.0370
ARG_OF_PERICENTER = 256.5033
MEAN_ANOMALY   = 215.6517

EPHEMERIS_TYPE = 0
CLASSIFICATION_TYPE = U
NORAD_CAT_ID   = 67455
ELEMENT_SET_NO = 999
REV_AT_EPOCH   = 440
BSTAR          = -.25268E-1
MEAN_MOTION_DOT = -.2083391E-1
MEAN_MOTION_DDOT = 0

CCSDS_OMM_VERS = 2.0
CREATION_DATE  = 
ORIGINATOR     = 

OBJECT_NAME    = STARLINK-36493
OBJECT_ID      = 2026-008M
CENTER_NAME    = EARTH
REF_FRAME      = TEME
TIME_SYSTEM    = UTC
MEAN_ELEMENT_THEORY = SGP/SGP4

EPOCH          = 2026-02-04T04:00:01.999584
MEAN_MOTION    = 15.64147444
ECCENTRICITY   = .0000802
INCLINATION    = 42.9997
RA_OF_ASC_NODE = 37.0268
ARG_OF_PERICENTER = 260.4610
MEAN_ANOMALY   = 215.6569

EPHEMERIS_TYPE = 0
CLASSIFICATION_TYPE = U
NORAD_CAT_ID   = 67456
ELEMENT_SET_NO = 999
REV_AT_EPOCH   = 440
BSTAR          = -.24507E-1
MEAN_MOTION_DOT = -.2090285E-1
MEAN_MOTION_DDOT = 0

CCSDS_OMM_VERS = 2.0
CREATION_DATE  = 
ORIGINATOR     = 

OBJECT_NAME    = STARLINK-36529
OBJECT_ID      = 2026-008N
CENTER_NAME    = EARTH
REF_FRAME      = TEME
TIME_SYSTEM    = UTC
MEAN_ELEMENT_THEORY = SGP/SGP4

EPOCH          = 2026-02-04T04:00:01.999584
MEAN_MOTION    = 15.69404204
ECCENTRICITY   = .000084
INCLINATION    = 43.0000
RA_OF_ASC_NODE = 36.9353
ARG_OF_PERICENTER = 258.9740
MEAN_ANOMALY   = 253.8625

EPHEMERIS_TYPE = 0
CLASSIFICATION_TYPE = U
NORAD_CAT_ID   = 67457
ELEMENT_SET_NO = 999
REV_AT_EPOCH   = 440
BSTAR          = -.19854E-1
MEAN_MOTION_DOT = -.2099639E-1
MEAN_MOTION_DDOT = 0

CCSDS_OMM_VERS = 2.0
CREATION_DATE  = 
ORIGINATOR     = 

OBJECT_NAME    = STARLINK-36528
OBJECT_ID      = 2026-008P
CENTER_NAME    = EARTH
REF_FRAME      = TEME
TIME_SYSTEM    = UTC
MEAN_ELEMENT_THEORY = SGP/SGP4

EPOCH          = 2026-02-04T00:14:25.868832
MEAN_MOTION    = 15.75135580
ECCENTRICITY   = .0001298
INCLINATION    = 42.9999
RA_OF_ASC_NODE = 37.8423
ARG_OF_PERICENTER = 273.4824
MEAN_ANOMALY   = 86.5896

EPHEMERIS_TYPE = 0
CLASSIFICATION_TYPE = U
NORAD_CAT_ID   = 67458
ELEMENT_SET_NO = 999
REV_AT_EPOCH   = 439
BSTAR          = .1669E-2
MEAN_MOTION_DOT = .265234E-2
MEAN_MOTION_DDOT = 0

CCSDS_OMM_VERS = 2.0
CREATION_DATE  = 
ORIGINATOR     = 

OBJECT_NAME    = STARLINK-36546
OBJECT_ID      = 2026-008Q
CENTER_NAME    = EARTH
REF_FRAME      = TEME
TIME_SYSTEM    = UTC
MEAN_ELEMENT_THEORY = SGP/SGP4

EPOCH          = 2026-02-04T04:00:01.999584
MEAN_MOTION    = 15.69459120
ECCENTRICITY   = .0000878
INCLINATION    = 43.0001
RA_OF_ASC_NODE = 36.9201
ARG_OF_PERICENTER = 262.5333
MEAN_ANOMALY   = 256.2948

EPHEMERIS_TYPE = 0
CLASSIFICATION_TYPE = U
NORAD_CAT_ID   = 67459
ELEMENT_SET_NO = 999
REV_AT_EPOCH   = 440
BSTAR          = -.19786E-1
MEAN_MOTION_DOT = -.209762E-1
MEAN_MOTION_DDOT = 0

CCSDS_OMM_VERS = 2.0
CREATION_DATE  = 
ORIGINATOR     = 

OBJECT_NAME    = STARLINK-36523
OBJECT_ID      = 2026-008R
CENTER_NAME    = EARTH
REF_FRAME      = TEME
TIME_SYSTEM    = UTC
MEAN_ELEMENT_THEORY = SGP/SGP4

EPOCH          = 2026-02-04T04:00:01.999584
MEAN_MOTION    = 15.70091309
ECCENTRICITY   = .0000788
INCLINATION    = 43.0002
RA_OF_ASC_NODE = 36.9088
ARG_OF_PERICENTER = 256.3319
MEAN_ANOMALY   = 267.0850

EPHEMERIS_TYPE = 0
CLASSIFICATION_TYPE = U
NORAD_CAT_ID   = 67460
ELEMENT_SET_NO = 999
REV_AT_EPOCH   = 442
BSTAR          = -.19305E-1
MEAN_MOTION_DOT = -.2101207E-1
MEAN_MOTION_DDOT = 0

CCSDS_OMM_VERS = 2.0
CREATION_DATE  = 
ORIGINATOR     = 

OBJECT_NAME    = STARLINK-36522
OBJECT_ID      = 2026-008S
CENTER_NAME    = EARTH
REF_FRAME      = TEME
TIME_SYSTEM    = UTC
MEAN_ELEMENT_THEORY = SGP/SGP4

EPOCH          = 2026-02-04T04:00:01.999584
MEAN_MOTION    = 15.63676246
ECCENTRICITY   = .0000789
INCLINATION    = 42.9995
RA_OF_ASC_NODE = 37.0080
ARG_OF_PERICENTER = 257.4888
MEAN_ANOMALY   = 225.8793

EPHEMERIS_TYPE = 0
CLASSIFICATION_TYPE = U
NORAD_CAT_ID   = 67461
ELEMENT_SET_NO = 999
REV_AT_EPOCH   = 440
BSTAR          = -.25017E-1
MEAN_MOTION_DOT = -.2093458E-1
MEAN_MOTION_DDOT = 0

CCSDS_OMM_VERS = 2.0
CREATION_DATE  = 
ORIGINATOR     = 

OBJECT_NAME    = STARLINK-36504
OBJECT_ID      = 2026-008T
CENTER_NAME    = EARTH
REF_FRAME      = TEME
TIME_SYSTEM    = UTC
MEAN_ELEMENT_THEORY = SGP/SGP4

EPOCH          = 2026-02-04T00:12:30.538656
MEAN_MOTION    = 15.74843030
ECCENTRICITY   = .0002676
INCLINATION    = 43.0000
RA_OF_ASC_NODE = 37.8305
ARG_OF_PERICENTER = 190.7377
MEAN_ANOMALY   = 169.3435

EPHEMERIS_TYPE = 0
CLASSIFICATION_TYPE = U
NORAD_CAT_ID   = 67462
ELEMENT_SET_NO = 999
REV_AT_EPOCH   = 439
BSTAR          = .13425E-2
MEAN_MOTION_DOT = .209146E-2
MEAN_MOTION_DDOT = 0

CCSDS_OMM_VERS = 2.0
CREATION_DATE  = 
ORIGINATOR     = 

OBJECT_NAME    = STARLINK-36505
OBJECT_ID      = 2026-008U
CENTER_NAME    = EARTH
REF_FRAME      = TEME
TIME_SYSTEM    = UTC
MEAN_ELEMENT_THEORY = SGP/SGP4

EPOCH          = 2026-02-04T04:00:01.999584
MEAN_MOTION    = 15.71710970
ECCENTRICITY   = .0001041
INCLINATION    = 43.0001
RA_OF_ASC_NODE = 36.8811
ARG_OF_PERICENTER = 262.4034
MEAN_ANOMALY   = 272.1833

EPHEMERIS_TYPE = 0
CLASSIFICATION_TYPE = U
NORAD_CAT_ID   = 67463
ELEMENT_SET_NO = 999
REV_AT_EPOCH   = 440
BSTAR          = -.17901E-1
MEAN_MOTION_DOT = -.208934E-1
MEAN_MOTION_DDOT = 0

CCSDS_OMM_VERS = 2.0
CREATION_DATE  = 
ORIGINATOR     = 

OBJECT_NAME    = STARLINK-36421
OBJECT_ID      = 2026-008V
CENTER_NAME    = EARTH
REF_FRAME      = TEME
TIME_SYSTEM    = UTC
MEAN_ELEMENT_THEORY = SGP/SGP4

EPOCH          = 2026-02-04T04:00:01.999584
MEAN_MOTION    = 15.63547212
ECCENTRICITY   = .0000866
INCLINATION    = 42.9997
RA_OF_ASC_NODE = 36.9970
ARG_OF_PERICENTER = 260.7329
MEAN_ANOMALY   = 227.2638

EPHEMERIS_TYPE = 0
CLASSIFICATION_TYPE = U
NORAD_CAT_ID   = 67464
ELEMENT_SET_NO = 999
REV_AT_EPOCH   = 440
BSTAR          = -.25036E-1
MEAN_MOTION_DOT = -.2085509E-1
MEAN_MOTION_DDOT = 0

CCSDS_OMM_VERS = 2.0
CREATION_DATE  = 
ORIGINATOR     = 

OBJECT_NAME    = STARLINK-36437
OBJECT_ID      = 2026-008W
CENTER_NAME    = EARTH
REF_FRAME      = TEME
TIME_SYSTEM    = UTC
MEAN_ELEMENT_THEORY = SGP/SGP4

EPOCH          = 2026-02-04T04:00:01.999584
MEAN_MOTION    = 15.72107491
ECCENTRICITY   = .0001054
INCLINATION    = 43.0002
RA_OF_ASC_NODE = 36.8682
ARG_OF_PERICENTER = 258.7488
MEAN_ANOMALY   = 280.6520

EPHEMERIS_TYPE = 0
CLASSIFICATION_TYPE = U
NORAD_CAT_ID   = 67465
ELEMENT_SET_NO = 999
REV_AT_EPOCH   = 440
BSTAR          = -.17764E-1
MEAN_MOTION_DOT = -.2106475E-1
MEAN_MOTION_DDOT = 0

